ObjectID,X,Y,Name,Street_Address,City_1,State_1,Zip_1,Phone_Number
1,13479585.054007,307158.558085,Wright & Company,1500 Woodward Ave,Detroit,MI,48226,(313) 962-7711
2,13479804.455455,304651.701192,The Apparatus Room,250 W Larned St,Detroit,MI,48226,(313) 800-5600
3,13479915.289841,305509.091809,Dime Store,719 Griswold St,Detroit,MI,48226,(313) 962-9106
4,13480429.421668,306826.884807,Standby,225 Gratiot Ave,Detroit,MI,48226,(313) 736-5533
5,13475217.216069,311673.328296,Selden Standard,3921 2nd Ave,Detroit,MI,48201,(313) 438-5055
6,13477998.53618,307065.126016,Republic,1942 Grand River Ave,Detroit,MI,48226,(313) 446-8360
8,13480214.273986,305837.734285,Parc,800 Woodward Ave,Detroit,MI,48226,(313) 922-7272
9,13477754.544622,310717.357474,Grey Ghost Detroit,47 Watson St,Detroit,MI,48201,(313) 262-6534
10,13475394.260523,305151.817633,Lady Of The House,1426 Bagley Ave,Detroit,MI,48216,(313) 818-0218
11,13478780.827486,307622.306865,Rusted Crow Detroit,78 W Adams Ave,Detroit,MI,48226,(313) 782-4751
12,13480068.333588,307594.830427,Vertical Detroit,1538 Centre St,Detroit,MI,48226,(313) 732-9463
13,13479052.847475,305963.560508,Roast,1128 Washington Blvd,Detroit,MI,48226,(313) 961-2500
14,13478727.496806,306800.179709,SavannahBlue,1431 Times Square,Detroit,MI,48226,(313) 926-0783
15,13475815.82021,304611.829068244,Batch Brewing Company,1400 Porter St,Detroit,MI,48216,(313) 338-8008
16,13476158.897995,304818.174206,Mudgie’s Deli & Wine Shop,1300 Porter St,Detroit,MI,48226,(313) 961-2000
17,13471021.7965,305732.139033,Takoi,2520 Michigan Ave,Detroit,MI,48216,
18,13480182.004991,306933.710227,Vicente’s Cuban Cuisine,1250 Library St,Detroit,MI,48226,(313) 962-8800
19,13479205.225612,305520.022267,Wala,1010 Washington Blvd,Detroit,MI,48226,(313) 963-5450
20,13479625.030379,307089.515964,Cornerstone Barrel House,1456 Woodward Ave,Detroit,MI,48226,(313) 338-3238
21,13479749.979907,305474.046836,Maru Sushi & Grill Detroit,160 W Fort St,Detroit,MI,48226,(313) 315-3100
22,13473611.061663,302201.059443,Green Dot Stables,2200 W Lafayette Blvd,Detroit,MI,48216,
23,13480047.001921,304968.818844,London Chop House,155 W Congress St,Detroit,MI,48226,(313) 962-0277
24,13475295.30714,304106.490471,Red Dunn Kitchen,1331 Trumbull Ave,Detroit,MI,48216,(313) 887-9477
25,13480038.345905,305144.736752,Caucus Club,150 W Congress St,Detroit,MI,48226,(313) 965-4970
26,13475657.734398,312515.341967,Royale with Cheese,4163 Cass Ave,Detroit,MI,48201,(313) 315-3014
27,13472905.782685,305576.845764,ima,2015 Michigan Ave,Detroit,MI,48216,
28,13475096.651136,305817.072768,Ottava Via,1400 Michigan Ave,Detroit,MI,48216,(313) 962-5500
29,13480519.842655,305685.004631,Central Kitchen + Bar,660 Woodward Ave,Detroit,MI,48226,(313) 963-9000
30,13479782.110408,305796.132659,Lafayette Coney Island,118 W Lafayette Blvd,Detroit,MI,48226,(313) 964-8198
31,13476176.431542,313103.358789,2941 Street Food,4219 Woodward Ave,Detroit,MI,48201,(313) 338-3466
32,13482358.9376,304876.434603,Joe Muer Seafood,400 Renaissance Ctr,Detroit,MI,48243,(313) 567-6837
33,13483779.178343,306596.433893,The Clique Restaurant,1326 E Jefferson Ave,Detroit,MI,48207,
34,13480737.63167,305301.428819,Townhouse,500 Woodward Ave,Detroit,MI,48226,(313) 723-1000
35,13479619.844393,306260.485313,La Lanterna,1224 Griswold St,Detroit,MI,48226,(313) 962-8821
36,13479732.697124,306485.504867,The Hudson Cafe,1241 Woodward Ave,Detroit,MI,48226,(313) 237-1000
37,13476325.068396,313166.270975,Rock City Eatery,4216 Woodward Ave,Detroit,MI,48201,(313) 265-3729
38,13481139.732652,307035.995414,Firebird Tavern,419 Monroe St,Detroit,MI,48226,(313) 782-4189
39,13479310.865462,307017.985256,Downtown Louie’s,30 Clifford St,Detroit,MI,48226,(313) 961-1600
40,13482572.27208,310470.791931,Gather,1454 Gratiot Ave,Detroit,MI,48207,
41,13474852.861012,316286.903231,Chartreuse,15 E Kirby St,Detroit,MI,48202,(313) 818-3915
42,13480519.842655,305685.004631,Roasting Plant - Detroit,660 Woodward Ave,Detroit,MI,48226,(313) 782-4291
43,13480519.842655,305685.004631,Shake Shack,660 Woodward Ave,Detroit,MI,48226,(313) 672-0501
44,13479929.936526,306157.56179,Avalon Cafe and Bakery,1049 Woodward Ave,Detroit,MI,48226,(313) 285-8006
45,13480275.686437,307617.501322,Colors,311 E Grand River Ave,Detroit,MI,48226,(313) 496-1212
46,13481497.874503,306126.360968,Jacoby’s German Biergarten,624 Brush St,Detroit,MI,48226,(313) 962-7067
47,13478624.654033,307657.066289,Gogo’s,2040 Park Ave,Detroit,MI,48226,(313) 672-4646
48,13477998.53618,307065.126016,Parks & Rec Diner,1942 Grand River Ave,Detroit,MI,48226,(313) 446-8370
49,13473775.705444,305688.670869,Bobcat Bonnie’s,1800 Michigan Ave,Detroit,MI,48216,(313) 962-1383
51,13478145.040375,309597.626356,Kid Rocks Made In Detroit,2645 Woodward Ave,Detroit,MI,48201,(313) 462-8620
52,13480252.121642,306290.086445,Texas de Brazil,1000 Woodward Ave,Detroit,MI,48226,(313) 964-4333
53,13482018.959935,310922.743451,Supino Pizzeria,2457 Russell St,Detroit,MI,48207,(313) 567-7879
55,13479223.221873,307037.284852,La Pecora Nera,1514 Washington Blvd,Detroit,MI,48226,(313) 315-3040
56,13482492.70337,310339.424464,Antietam,1428 Gratiot,Detroit,MI,48207,
57,13475690.542567,305822.595477,Brooklyn Street Local,1266 Michigan Ave,Detroit,MI,48226,(313) 262-6547
58,13478391.476307,304258.769966,Tommy’s Detroit Bar & Grill,624 3rd St,Detroit,MI,48226,(313) 965-2269
59,13480859.049564,307287.797558,Basement Burger Bar,1326 Brush St,Detroit,MI,48226,(313) 818-3708
60,13482358.9376,304876.434603,Andiamo Detroit Riverfront,400 Renaissance Ctr,Detroit,MI,48243,(313) 567-6700
61,13480208.551409,307321.347206,Jose’s Tacos,218 E Grand River,Detroit,MI,48226,(313) 965-9992
62,13481599.043195,305899.281391,Sweetwater Tavern,400 E Congress St,Detroit,MI,48226,(313) 962-2210
63,13481691.732629,306958.662238,Prism,555 E Lafayette St,Detroit,MI,48226,(313) 309-2499
64,13480184.027979,307277.011861,Chubby Duck Detroit,208 E Grand River Ave,Detroit,MI,48226,(313) 400-5414
65,13481580.829575,307305.003321,PizzaPapalis of Greektown,553 Monroe St,Detroit,MI,48226,(313) 961-8020
66,13481703.0222,307172.457049,Pegasus Taverna,558 Monroe St,Detroit,MI,48226,(313) 964-6800
67,13472839.718733,301097.649526,Johnny Noodle King,2601 W Fort,Detroit,MI,48216,
68,13472351.63746,305743.860959,Slows Bar BQ,2138 Michigan Ave,Detroit,MI,48216,
69,13480579.568781,305509.67549,Grand Trunk Pub,612 Woodward Ave,Detroit,MI,48226,(313) 961-3043
70,13482250.343834,310668.014802,Stache International,1416 E Fisher Fwy,Detroit,MI,48207,
71,13480252.121642,306290.086445,Calexico - Detroit,1040 Woodward Ave,Detroit,MI,48226,(313) 262-6361
72,13479781.008549,304901.476523,Blue Star Cafe,239 W Congress St,Detroit,MI,48226,(313) 222-5893
73,13474825.2723097,308646.650590554,Iridescence,2901 Grand River Ave,Detroit,MI,48218,
74,13480312.325903,304694.9037,The District Bar & Grill,150 W Jefferson,Detroit,MI,48226,(313) 285-8992
75,13481927.400825,304977.712656,Granite City Food & Brewery,100 Renaissance Ctr,Detroit,MI,48243,(313) 309-9120
76,13480983.547967,305708.805812,Checker Bar,124 Cadillac Sq,Detroit,MI,48226,(313) 961-9249
77,13476639.08572,303471.046488,Sheeba Express,1366 W Fort St,Detroit,MI,48226,
79,13481632.474465,307336.152007,Wahlburgers,569 Monroe St,Detroit,MI,48226,(313) 209-4499
80,13481382.750894,307172.755883,Santorini Estiatorio,501 Monroe St,Detroit,MI,48226,(313) 962-9366
81,13478628.30932,304966.074657,Motor City Kitchen,525 W Lafayette Blvd,Detroit,MI,48226,(313) 963-5600
82,13479656.088779,307366.790767,Small Plates,1521 Broadway,Detroit,MI,48226,(313) 963-0702
83,13478636.583434,307639.772771,Cliff Bell’s,2030 Park Ave,Detroit,MI,48226,(313) 961-2543
84,13475795.337961,312561.756966,La Feria,4130 Cass Ave,Detroit,MI,48201,(313) 285-9081
85,13472574.983038,305661.177284,Gold Cash Gold,2100 Michigan Ave,Detroit,MI,48216,
86,13471964.613763,303529.280205,Huron Room,2547 Bagley St,Detroit,MI,48216,
87,13479618.676007,306264.364659,Go! Sy Thai,1226 Griswold St,Detroit,MI,48226,(313) 638-1467
88,13479771.832415,305876.32265,24grille,204 Michigan Ave,Detroit,MI,48226,(313) 964-3821
89,13480998.141389,305779.878832,POP + Offworld,128 Cadillac Square,Detroit,MI,48226,(313) 961-9249
90,13472208.839271,303498.25246,Honey Bee La Colmena,2443 Bagley St,Detroit,MI,48216,
91,13478926.108302,307796.057675,Brass Rail Pizza Bar,18 W Adams Ave,Detroit,MI,48226,(313) 964-0782
92,13478237.002516,309062.731764,Sports & Social Detroit,28 Henry St,Detroit,MI,48201,(313) 782-4778
93,13481238.654366,306896.804852,Fishbone’s,400 Monroe St,Detroit,MI,48226,(313) 965-4600
94,13472305.550885,305564.388833,Mercury Burger Bar,2163 Michigan Ave,Detroit,MI,48216,
95,13474569.857056,311727.60484,Gus’s World Famous Fried Chicken,4101 3rd St,Detroit,MI,48201,(313) 818-0324
96,13480855.448837,306776.276102,Ham Shop Cafe,330 Monroe St,Detroit,MI,48226,(313) 965-0088
97,13479915.289841,305509.091809,Drought,719 Griswold St,Detroit,MI,48226,(313) 888-9950
98,13479626.50929,307382.289447,Detroit Beer Company,1529 Broadway,Detroit,MI,48226,(313) 962-1529
99,13477656.353115,310545.147291,Pho Lucky - Detroit,3111 Woodward Ave,Detroit,MI,48201,(313) 338-3895
100,13478624.654033,307657.066289,Bar,2040 Park Ave,Detroit,MI,48226,(313) 962-2933
101,13480340.842305,306840.587165,Punch Bowl Social Detroit,1331 Broadway St,Detroit,MI,48226,(313) 749-9738
102,13479794.186152,305803.51664,American Coney Island,114 W Lafayette Blvd,Detroit,MI,48226,(313) 961-7758
103,13479534.163988,307070.485367,Chickpea In the D,2 John R,Detroit,MI,48226,(313) 970-7618
104,13476267.278982,313234.272825,HopCat,4265 Woodward Ave,Detroit,MI,48201,(313) 769-8828
105,13475013.509134,312819.508365,Jolly Pumpkin Pizzeria and Brewery,441 W Canfield,Detroit,MI,48201,(313) 262-6115
106,13481648.831402,307266.72971,Red Smoke Barbecue,573 Monroe St,Detroit,MI,48226,(313) 962-2100
107,13475769.589907,305827.137755,PJ’s Lager House,1254 Michigan Ave,Detroit,MI,48226,(313) 961-4668
108,13482193.8083989,305140.640748039,Sweet Lorraine’s Fabulous Mac n’ Cheez!,Renaissance Ctr,Detroit,MI,48243,(313) 656-4838
109,13475495.603551,311681.623167,Honest John’s Bar & Grill,488 Selden St,Detroit,MI,48201,(313) 832-5646
110,13476498.691192,310405.139711,The Peterboro,420 Peterboro St,Detroit,MI,48201,(313) 833-1111
111,13482004.001191,310951.106338,Russell St Deli,2465 Russell St,Detroit,MI,48207,(313) 567-2900
112,13480047.988709,308036.263062,Grill Room at Detroit Athletic Club,241 Madison Ave,Detroit,MI,48226,(313) 963-9200
113,13480316.47006,306763.594835,7 Greens Detroit Salad,1222 Library St,Detroit,MI,48226,(313) 964-9005
114,13482629.386269,310533.355074,Trinosophes,1464 Gratiot,Detroit,MI,48207,
115,13480793.975248,306912.466302,Giordano’s - Detroit,1224 Randolph St,Detroit,MI,48226,(313) 752-0441
117,13482358.9376,304876.434603,Volt Lounge,400 Renaissance Dr,Detroit,MI,48243,(313) 568-8000
118,13480009.853664,306030.27627,Bellacino’s,1001 Woodward Ave,Detroit,MI,48226,(313) 963-3000
119,13475505.753642,312639.341703,Avalon International Breads,422 W Willis St,Detroit,MI,48201,(313) 832-0008
120,13474911.51515,313144.636043,Motor City Brewing Works,470 W Canfield St,Detroit,MI,48201,(313) 832-2700
121,13479199.153648,304673.043033,Cobo Joe’s Bar,422 W Congress St,Detroit,MI,48226,(313) 965-0840
122,13479278.252638,307469.712538,Broderick Grille,1570 Woodward Ave,Detroit,MI,48226,(313) 672-2073
123,13481457.01053,307229.178303,Golden Fleece Restaurant,525 Monroe St,Detroit,MI,48226,(313) 962-7093
124,13471115.063256,313863.77075,Pie Sci,5163 Trumbull Ave,Detroit,MI,48208,(313) 818-0290
125,13481639.928786,306392.421226,Detroiter Bar,655 Beaubien St,Detroit,MI,48226,(313) 963-3355
126,13469780.467656,302502.975977,Taqueria Lupita’s,3443 Bagley St,Detroit,MI,48216,(313) 843-1105
127,13481632.39162,306497.149798,Niki’s Pizza,735 Beaubien St,Detroit,MI,48226,(313) 961-4303
128,13478256.058685,308136.503461,Centaur Bar,2233 Park Ave,Detroit,MI,48201,(313) 963-4040
129,13471268.65635,303789.44403,Tamaleria Nuevo Leon,2669 Vernor Hwy,Detroit,MI,48216,
130,13476694.426211,312406.510622,The Block,3919 Woodward Ave,Detroit,MI,48201,(313) 832-0892
131,13487275.175519,308452.799638,Bucharest Grill,2684 E Jefferson,Detroit,MI,48207,
132,13480173.685596,305164.961999,Greenroom Salads,120 W Congress St,Detroit,MI,48226,(313) 963-9565
133,13480519.842655,305685.004631,Lunchtime Global,660 Woodward Ave,Detroit,MI,48226,(313) 963-4871
134,13480906.929449,306001.294449,Cadillac Square Diner,111 Cadillac Sq,Detroit,MI,48226,(313) 974-6923
135,13478256.058685,308136.503461,Hot Taco,2233 Park Ave,Detroit,MI,48201,(313) 963-4545
136,13487979.415572,307742.899541,Andrews On the Corner,201 Joseph Campau St,Detroit,MI,48207,
137,13475531.715426,313004.819837,Go! Sy Thai,4240 Cass Ave,Detroit,MI,48201,(313) 638-1467
138,13474844.009165,305799.7938,McShane’s Irish Pub & Whiskey Bar,1460 Michigan Ave,Detroit,MI,48216,(313) 961-1960
139,13481043.701362,307453.371269,Harbor House,440 Clinton St,Detroit,MI,48226,(313) 967-9900
140,13480555.54252,305549.925263,Bangkok Crossing,620 Woodward Ave,Detroit,MI,48226,(313) 961-3861
141,13479019.418326,306651.461304,Bam Bamz Pizza,1411 Washington Blvd,Detroit,MI,48226,(313) 964-4100
142,13475827.191132,313499.993015,The Ghost Bar,4421 Woodward Ave,Detroit,MI,48201,(313) 832-5700
143,13474661.892039,305586.833181,Onassis Coney Island,1501 Michigan Ave,Detroit,MI,48216,(313) 222-9999
144,13474688.13603,313285.577646,The Bronx Bar,4476 2nd Ave,Detroit,MI,48201,(313) 832-8464
145,13478319.795734,309260.551587,Mike’s Pizza Bar,2515 Woodward Ave,Detroit,MI,48201,(313) 782-4589
146,13482241.027919,311168.897589,Eastern Market Seafood Co,2456 Market St,Detroit,MI,48207,(313) 567-8359
147,13466199.777084,301058.501123,Taqueria El Rey,4750 Vernor Hwy,Detroit,MI,48209,(313) 357-3094
148,13477619.606921,308623.248246,Harry’s Detroit,2482 Clifford St,Detroit,MI,48201,(313) 964-1575
149,13480435.926227,307316.014404,Detroit Seafood Market,1435 Randolph St,Detroit,MI,48226,(313) 962-4180
150,13480502.497561,306605.625999,Orchid Thai Restaurant,115 Monroe St,Detroit,MI,48226,(313) 962-0225
151,13487678.717263,308383.40146,They Say,267 Joseph Campau St,Detroit,MI,48207,
152,13474294.712682,305609.467002,Bucharest Grill,1623 Michigan Ave,Detroit,MI,48216,(313) 965-3111
153,13488134.35024,307933.399281,Rattlesnake Club,300 River Pl Dr,Detroit,MI,48207,
154,13476453.119892,313680.84509,La Palma,113 E Canfield St,Detroit,MI,48201,(313) 833-5000
155,13479222.213467,305754.952155,Big City Bar & Grill,1020 Washington Blvd,Detroit,MI,48226,(313) 963-8808
156,13478005.288559,303072.413878,Signature Grill,250 Riverfront Dr,Detroit,MI,48226,
157,13476552.563206,306423.380438,MGM Grand Detroit,1777 3rd St,Detroit,MI,48226,(877) 888-2121
158,13482589.76977,312003.93799,Cutter’s Bar & Grill,2638 Orleans St,Detroit,MI,48207,(313) 393-0960
159,13470063.787723,302720.018989,Los Galanes,3362 Bagley St,Detroit,MI,48216,(313) 554-4444
160,13479044.471764,306198.278191,State Deli & Grocery,1200 Washington Blvd,Detroit,MI,48226,(313) 963-5141
161,13482442.400055,305317.026687,Gourmet Deli,500 Renaissance Ctr,Detroit,MI,48243,(313) 396-5543
162,13479299.166425,306025.920922,WBC Coffee,1114 Washington Blvd,Detroit,MI,48226,(313) 442-1600
163,13480424.554,305121.464571,Guardian Cafe,500 Griswold St,Detroit,MI,48226,(313) 962-7027
164,13480432.493425,306185.114184,Hard Rock Cafe,45 Monroe Street,Detroit,MI,48226,(313) 964-7625
165,13480738.49511,305996.522005,Asiago’s Pizza,65 Cadillac Sq,Detroit,MI,48226,(313) 262-6131
166,13478818.415122,308307.690312,Da Edoardo Foxtown Grille,2203 Woodward Ave,Detroit,MI,48201,(313) 471-3500
167,13476447.012474,312887.833408,Union Street,4145 Woodward Ave,Detroit,MI,48201,(313) 831-3965
168,13476113.551763,313841.19288,Café 78,4454 Woodward Ave,Detroit,MI,48201,(313) 832-6622
169,13481952.069818,306982.76002,Floods Bar & Grille,731 St Antoine St,Detroit,MI,48226,(313) 963-1090
170,13481996.521819,310965.287782,Zeff’s Coney Island Restaurant,2469 Russell St,Detroit,MI,48207,(313) 259-4705
171,13469769.841878,302643.742095,Evie’s Tamales,3454 Bagley St,Detroit,MI,48216,(313) 843-5056
172,13483777.29243,308068.856562,Bai Mai Thai,1541 E Lafayette St,Detroit,MI,48207,
173,13475176.051653,314869.554934,The Potato Place,107 W Warren Ave,Detroit,MI,48201,(313) 833-8948
174,13476436.14722,312951.803411,Zef’s Midtown,4160 Woodward Ave,Detroit,MI,48201,(313) 831-1210
175,13481826.901012,311117.475266,Beyond Juicery + Eatery,2501 Russell St,Detroit,MI,48207,(313) 818-3502
176,13481543.711838,307282.557702,New Parthenon Restaurant,547 Monroe St,Detroit,MI,48226,(313) 963-8888
177,13469966.914296,302656.044613,Xochimilco Restaurant,3409 Bagley St,Detroit,MI,48216,(313) 843-0179
178,13475210.096188,315468.92438,Kresge Court at Detroit Institute of Arts,5200 Woodward Ave,Detroit,MI,48202,(313) 833-7900
179,13473246.995267,307137.471842,Nancy Whiskey,2644 Harrison St,Detroit,MI,48216,
180,13480081.118601,305349.726767,Which Wich Superior Sandwiches,645 Griswold,Detroit,MI,48226,(313) 444-1441
181,13482322.912197,311168.673811,Vivio’s Food & Spirits,2460 Market St,Detroit,MI,48207,(313) 393-1711
182,13475827.191132,313499.993015,The Whitney,4421 Woodward Ave,Detroit,MI,48201,(313) 832-5700
183,13474772.880292,313192.515623,Fresh Corner Café,4444 Second Ave,Detroit,MI,48201,(313) 444-5027
184,13482142.835908,311358.069427,Farmers Restaurant,2542 Market St,Detroit,MI,48207,(313) 259-8230
185,13481662.696129,305525.331853,Rice Bowl Fresh Asian Kitchen,"333 E Jefferson, Ste 270",Detroit,MI,48226,(313) 963-3200
186,13481612.263107,307323.843857,Monroe Street Steakhouse,561 Monroe St,Detroit,MI,48226,(313) 961-3636
187,13481463.058424,312220.73513,People’s Pierogi Collective,2934 Russell St,Detroit,MI,48207,
188,13480910.613374,313452.393194,Milano Bakery,3500 Russell St,Detroit,MI,48207,(313) 833-8144
189,13481160.073716,312771.052735,Sala Thai,3400 Russell St,Detroit,MI,48207,(313) 831-1302
191,13481486.409447,311598.415039,Bert’s Marketplace,2727 Russell St,Detroit,MI,48207,(313) 567-2030
192,13475113.499021,313948.662521,Midtown Shangri-La,4710 Cass Ave,Detroit,MI,48201,(313) 974-7669
193,13481457.01053,307229.178303,Eat-N-Out Pizza & Gelato,531 Monroe Ave,Detroit,MI,48226,(313) 800-5718
194,13482018.959935,310922.743451,Schnäck,2457 Russel St,Detroit,MI,48207,
195,13475338.994896,305724.030951,Nemo’s Bar,1384 Michigan Ave,Detroit,MI,48226,(313) 965-3180
196,13476101.042695,314309.753293,Seva Detroit,66 E Forest Ave,Detroit,MI,48201,(313) 974-6661
197,13479337.026124,305074.761746,Gateway Deli Cafe,333 West Fort,Detroit,MI,48226,(313) 256-1900
199,13474935.570659,312791.850316,Traffic Jam & Snug,511 W Canfield St,Detroit,MI,48201,(313) 831-9470
200,13471921.207006,303467.03002,Social Sushi Detroit,2545 Bagley Ave,Detroit,MI,48216,
201,13480502.497561,306605.625999,Mr. Kabob Grille & Catering,119 Monroe St,Detroit,MI,48226,(313) 496-6666
202,13474550.515937,308622.411511,Assembly Line Buffet,2901 Grand River Ave,Detroit,MI,48201,
203,13475052.653856,314375.995274,Blimpie,108 W Hancock St,Detroit,MI,48201,(313) 831-0711
204,13478272.308901,304662.120965,Press Room,615 W Lafayette,Detroit,MI,48226,(313) 373-8670
205,13474550.515937,308622.411511,The Lodge Diner,2901 Grand River Ave,Detroit,MI,48201,
206,13481289.969902,313732.324441,Louie’s Ham And Corned Beef,3570 Riopelle St,Detroit,MI,48207,(313) 831-1800
207,13480081.118601,305349.726767,Carnival Fresh Mex,645 Griswold St,Detroit,MI,48226,(313) 223-1400
208,13480975.48962,306939.396976,The Old Shillelagh,349 Monroe St,Detroit,MI,48226,(313) 964-0007
209,13475653.768171,312308.046822,Slows To Go,4107 Cass Ave,Detroit,MI,48201,(313) 309-7560
210,13478225.88525,308214.197462,The Town Pump Tavern,100 W Montcalm St,Detroit,MI,48201,(313) 961-1929
211,13480009.853664,306030.27627,Freshii,1001 Woodward,Detroit,MI,48226,(313) 237-0700
212,13482428.71091,305941.400467,Nathan’s Deli,581 E Jefferson Ave,Detroit,MI,48226,(313) 962-3354
213,13479915.289841,305509.091809,Mike’s Kabob Grille,719 Griswold St,Detroit,MI,48226,(313) 662-9927
215,13490709.855046,310622.221975,Le Petit Dejeuner,6470 E Jefferson,Detroit,MI,48207,
216,13475516.72855,312644.225659,Alley Taco,418 W Willis,Detroit,MI,48201,(313) 818-0067
217,13480736.673331,306837.667362,The Baltimore,1234 Randolph,Detroit,MI,48226,(313) 964-2728
218,13483759.968542,308058.449505,Urban Soul,1535 E Lafayette St,Detroit,MI,48207,
219,13473815.691761,313341.548406,Harmony Garden Cafe,4704 Anthony Wayne Dr,Detroit,MI,48201,(313) 638-2345
220,13473176.904048,305789.763147,White Castle,1930 Michigan Ave,Detroit,MI,48216,
221,13475220.908895,313758.539185,Cass Cafe,4620 Cass Ave,Detroit,MI,48201,(313) 831-1400
222,13466609.39159,300951.541273,Antojitos El Catracho,4627 W Vernor Hwy,Detroit,MI,48209,(313) 209-4815
223,13480187.450129,308385.71202,Elwood Bar & Grill,300 E Adams Ave,Detroit,MI,48226,(313) 962-2337
224,13479305.837419,308024.239758,Cheli’s Chili Bar,47 E Adams Ave,Detroit,MI,48226,(313) 961-1700
225,13480081.118601,305349.726767,Athens Souvlaki,645 Griswold St,Detroit,MI,48226,(313) 265-3178
226,13483399.447392,312366.367792,Louisiana Creole Gumbo,2051 Gratiot Ave,Detroit,MI,48207,(313) 446-9639
227,13481550.597738,307082.247302,Five Guys,508 Monroe St,Detroit,MI,48226,(313) 237-7777
228,13482090.3277559,304715.708989501,Potbelly Sandwich Shop,300 Ren Ctr,Detroit,MI,48243,(313) 566-0028
229,13478871.87818,307755.158097,Subway,28 W Adams Ave Lbby 2,Detroit,MI,48226,(313) 963-9166
230,13478586.060537,308508.573524,Hockeytown Cafe,2301 Woodward Ave,Detroit,MI,48201,(313) 965-9500
231,13481430.807231,307182.4788,Pappy’s Bar & Grill,517 Monroe St,Detroit,MI,48226,(313) 983-4000
232,13477482.14991,310882.6443,Top China One,3157 Woodward Ave,Detroit,MI,48201,(313) 832-1111
233,13480712.991069,307291.532618,Chrome Bar and Grille,351 Gratiot Ave,Detroit,MI,48226,(313) 967-0900
234,13473788.960137,316795.66249,Tony V’s Tavern,5756 Cass Ave,Detroit,MI,48202,(313) 833-5595
235,13480059.530063,305720.611667,Potbelly Sandwich Shop,777 Woodward Ave,Detroit,MI,48226,(313) 309-4197
236,13477345.490368,311147.493051,Detroit One Coney Island,3433 Woodward Ave,Detroit,MI,48201,(313) 832-7380
237,13484725.538301,312799.543705,Mr Fish,2629 E Vernor Hwy,Detroit,MI,48207,
238,13481488.828095,307248.195596,The Greek,535 Monroe Ave,Detroit,MI,48226,(313) 209-6667
239,13479929.936526,306157.56179,Slices,1043 Woodward Ave,Detroit,MI,48226,(313) 963-8800
240,13467340.056206,305657.47756,Mike’s Famous Ham Place,3700 Michigan Ave,Detroit,MI,48216,(313) 894-6922
241,13476507.041417,312814.449935,Sgt. Pepperoni’s,4120 Woodward Ave,Detroit,MI,48201,(313) 833-7272
242,13478524.227313,306624.208393,Nick’s Gaslight Restaurant & Lounge,441 Grand River Ave,Detroit,MI,48226,(313) 963-9191
243,13472751.074333,307148.345459,Pink FlaminGO! Mobile Restaurant,2737 - 2747 Rosa Parks,Detroit,MI,48216,
244,13482193.808239,305140.640818,Zoup!,200 Renaissance Ctr,Detroit,MI,48243,(313) 567-7500
245,13477847.710163,307738.652282,Bookies Bar & Grille,2208 Cass Ave,Detroit,MI,48201,(313) 962-0319
246,13474550.515937,308622.411511,MotorCity Casino Buffet,2901 Grand River Ave,Detroit,MI,48201,
247,13469217.436249,302788.841942,Sicily’s Pizzeria & Subs,3554 W Vernor Hwy,Detroit,MI,48216,(313) 554-0755
248,13480178.324881,305232.810153,Jimmy John’s,615 Griswold St,Detroit,MI,48226,(313) 963-1044
249,13482472.574669,311318.83985,Beau Bien Fine Foods,2478 Riopelle St,Detroit,MI,48207,(313) 800-1363
250,13476552.563206,306423.380438,Crunch at Breeze,1777 Third St,Detroit,MI,48226,(877) 888-2121
251,13484260.730482,306646.765916,Papa’s Pizza & BBQ,1404 Jefferson Ave,Detroit,MI,48207,
252,13476606.10283,303542.181072,Coney King Coney Island,1350 W Fort St,Detroit,MI,48226,
253,13476507.0413386,312814.449803144,The Alley Deck,4120 Woodward Ave,Detroit,MI,48218,(313) 833-9700
254,13479643.560636,308607.313395,Bacardi Champions Club,2100 Woodward Ave,Detroit,MI,48201,
255,13480081.118601,305349.726767,Drive Table Tennis Social Club,645 Griswold St,Detroit,MI,48226,(313) 962-1830
256,13475239.65508,315197.758218,Maccabees Traders,5057 Woodward Ave,Detroit,MI,48202,(313) 831-9311
257,13480520.652686,307237.152723,Centre Park Bar,1407 Randolph St,Detroit,MI,48226,(313) 962-4999
258,13479676.263426,307867.835456,Cadillac Cafe,140 Madison St,Detroit,MI,48226,(313) 237-3487
259,13467434.061781,305676.807675,Hygrade Deli,3640 Michigan Ave,Detroit,MI,48216,(313) 894-6620
261,13482193.808239,305140.640818,Bozii,200 Renaissance Ctr,Detroit,MI,48243,(313) 656-4917
262,13481488.828095,307248.195596,Level Two Bar & Rooftop,535 Monroe St,Detroit,MI,48226,(313) 420-1990
263,13480570.207008,305524.342521,Woodward Coney Restaurant,616 Woodward Ave,Detroit,MI,48226,(313) 961-9900
264,13480312.325903,304694.9037,Terrace Cafe,150 W Jefferson Ave,Detroit,MI,48226,(313) 237-1010
265,13478427.195247,306991.835365,Coaches Corner,220 Bagley Ave,Detroit,MI,48226,(313) 963-4000
266,13481378.114184,306664.409162,Loco’s Tex-Mex Grille,454 E Lafayette,Detroit,MI,48226,(313) 965-3737
267,13475074.72997,316309.055575,International Mini-Café,111 E Kirby,Detroit,MI,48202,(313) 377-2555
268,13480312.325903,304694.9037,TJ’s Grillworks,150 W Jefferson Ave,Detroit,MI,48226,(313) 963-7900
269,13469835.346255,302601.502762,Mexican Town Restaurant,3457 Bagley St,Detroit,MI,48216,(313) 841-5811
270,13474709.323135,313029.583667,Maya’s Indo-Pak Cuisine,4445 2nd Ave,Detroit,MI,48201,(313) 262-6204
271,13467311.626275,301753.727696,Armando’s,4242 W Vernor Hwy,Detroit,MI,48209,(844) 581-0951
272,13466912.435338,301466.179289,PizzaPlex,4458 Vernor Hwy,Detroit,MI,48209,(313) 757-4992
273,13474852.861012,316286.903231,Fourteen East,15 E Kirby St,Detroit,MI,48202,(313) 871-0500
274,13488924.782946,309432.663911,Tubby’s,3250 E Jefferson Ave,Detroit,MI,48207,
275,13477580.255704,304015.584441,Subway,1001 W Fort St,Detroit,MI,48226,(313) 962-1307
276,13487275.175519,308452.799638,Lucky Dragon,2664 E Jefferson Ave,Detroit,MI,48207,
277,13488271.745434,309321.022913,PizzaPapalis - Rivertown,3171 E Jefferson Ave,Detroit,MI,48207,
278,13481037.808331,312776.196941,Frank’s Deli & Grill,3405 Russell St,Detroit,MI,48207,(313) 285-9551
279,13479594.231393,305032.446345,Zoom Grill,211 W Fort St,Detroit,MI,48226,(313) 964-5030
280,13482419.096082,310676.26771,Cheech’s Chicken,1429 Gratiot Ave,Detroit,MI,48207,
281,13474852.861012,316286.903231,Wasabi Korean and Japanese Cuisine,15 E Kirby St,Detroit,MI,48202,(313) 638-1272
282,13471723.756512,303506.710101,Mexican Village Restaurant,2600 Bagley St,Detroit,MI,48216,
284,13481927.400825,304977.712656,Forty-Two Degrees North,100 Renaissance Ctr,Detroit,MI,48243,
285,13480395.474527,305446.863832,Qzine Cafe,635 Woodward Ave,Detroit,MI,48226,(800) 863-4332
286,13480749.392408,306801.620318,Buffalo Wild Wings,1218 Randolph Street,Detroit,MI,48226,(313) 961-9453
287,13475008.969399,312600.361245,Mario’s Restaurant,4222 2nd Ave,Detroit,MI,48201,(313) 832-1616
288,13480910.613374,313452.393194,Milano Cafe,3500 Russell St,Detroit,MI,48207,(313) 833-9557
289,13480312.325903,304694.9037,150 Cafe Lounge,150 W Jefferson,Detroit,MI,48226,(313) 964-0150
290,13468359.974445,302239.776709,Taquería Chilango,3923 W Vernor Hwy,Detroit,MI,48216,
291,13478146.854534,306575.629414,Luci and Ethel’s,400 Bagley St,Detroit,MI,48226,(313) 962-2300
292,13474853.601792,314385.066925,Sweet Lorraine’s Fabulous Mac n’ Brewz,4870 Cass Ave,Detroit,MI,48201,(313) 782-4180
293,13477370.277557,312758.956948,Chiqui Mexican,3990 John R St,Detroit,MI,48201,(313) 832-9422
294,13469362.830436,302786.487117,Giovanna’s Lounge,3537 W Vernor Hwy,Detroit,MI,48216,(313) 554-9391
295,13480502.497561,306605.625999,Cottage Inn Pizza,107 Monroe,Detroit,MI,48226,(313) 782-4951
296,13476322.866606,303449.242397,Detroit Shawarma,1444 W Fort St,Detroit,MI,48216,
297,13482090.327715,304715.708911,Panera Bread,300 Renaissance Ctr,Detroit,MI,48243,(313) 818-4133
298,13466363.44442,301140.955089,El Paisa Taqueria Truck,Vernor Hwy And Lansing St,Detroit,MI,48209,
299,13480737.63167,305301.428819,Kevin Osborn,500 Woodward Ave,Detroit,MI,48226,
300,13481632.619431,311505.999007,Mike Coney Island,2719 Russell St,Detroit,MI,48207,(313) 259-8151
302,13482358.9376,304876.434603,Coney Town,400 Renaissance Ctr Lbby,Detroit,MI,48243,(313) 259-8000
303,13477301.216362,313968.973066,Delite Cafe Deli Detroit,320 E Canfield St,Detroit,MI,48201,(313) 818-0274
304,13480388.501892,306957.31049,Bert’s On Broadway,1315 Broadway St,Detroit,MI,48226,(313) 962-5430
305,13480435.926227,307316.014404,PV Lounge,1435 Randolph,Detroit,MI,48226,(313) 962-4180
306,13480438.509072,306195.974036,Tim Horton’s,49 Monroe St,Detroit,MI,48226,(313) 962-5550
307,13481927.400825,304977.712656,Rice Bowl Express,100 Renaissance Ctr,Detroit,MI,48243,(313) 259-3200
308,13481037.808331,312776.196941,Wigley’s Meats & Produce,3405 Russell St,Detroit,MI,48207,(313) 832-4299
309,13479726.53224,304993.479651,Subway,220 W Congress St,Detroit,MI,48226,(313) 963-9116
310,13476291.4776903,303677.708989501,Burger King,1425 W Lafayette Blvd,Detroit,MI,48209,(313) 965-5464
311,13476812.392416,315821.175294,Royal Grill Restaurant,540 E Warren Ave,Detroit,MI,48201,(313) 831-3555
312,13482358.9376,304876.434603,Burger King,400 Renaissance Ctr,Detroit,MI,48243,(313) 392-9362
313,13476829.188799,315831.467634,China House,550 E Warren Ave,Detroit,MI,48201,(313) 831-8888
314,13476322.866606,303449.242397,Happy Four Party Store,1444 W Fort St,Detroit,MI,48216,
315,13473989.310597,316593.453601,Byblos Cafe & Grill,87 W Palmer,Detroit,MI,48202,(313) 831-4420
316,13473975.033958,305781.095687,Corktown Tavern,1716 Michigan Ave,Detroit,MI,48216,(313) 964-5103
317,13479258.900121,304709.232477,Six Pack Bar & Grill,404 W Congress St,Detroit,MI,48226,(313) 964-1333
318,13482323.486976,311348.687654,Butchers Inn,1489 Winder St,Detroit,MI,48207,
319,13479299.166425,306025.920922,The Boulevard Room,1114 Washington Blvd,Detroit,MI,48226,(313) 442-1600
320,13476575.644642,303537.345046,Haz Subs and Salads,1360 W Fort St,Detroit,MI,48226,
321,13482358.9376,304876.434603,Presto Gourmet Deli,400 Renaissance Ctr,Detroit,MI,48243,(313) 567-6700
322,13482323.486976,311348.687654,BB’s Butchers Inn,1489 Winder St,Detroit,MI,48207,(313) 502-5148
323,13485735.167722,307351.612538,Chill Martini Bistro,2000 E Woodbridge,Detroit,MI,48207,
324,13490611.464875,311758.520173,Southern Fires Bistro & Lounge,575 Bellevue St,Detroit,MI,48207,
326,13482193.808239,305140.640818,Subway,200 Renaissance Ctr,Detroit,MI,48243,(313) 567-3345
327,13482193.808239,305140.640818,Gyro Land,200 Rennaissance Ctr,Detroit,MI,48243,
329,13485578.314157,307788.191345,Mainstreet Grill & Coney Island,1985 E Jefferson Ave,Detroit,MI,48207,
330,13475561.030415,313500.558892,Firehouse Subs,4501 Woodward Ave,Detroit,MI,48201,(313) 818-3681
332,13475561.030415,313500.558892,Starter’s Bar and Grill,4501 Woodward Ave,Detroit,MI,48201,(313) 831-3100
333,13487049.838082,308695.225299,IHOP,2701 E Jefferson Ave,Detroit,MI,48207,
334,13478145.040375,309597.626356,District Market Detroit,2645 Woodward Ave,Detroit,MI,48201,
335,13480202.051036,305062.576451,Domino’s Pizza,535 Griswold St,Detroit,MI,48226,(313) 962-9100
336,13480502.497561,306605.625999,Jimmy John’s,95 Monroe St,Detroit,MI,48226,(313) 963-9131
337,13476552.563206,306423.380438,Relish at Breeze,1777 Third St,Detroit,MI,48226,(877) 888-2121
339,13481691.732629,306958.662238,Stack’d,555 E Lafayette Ave,Detroit,MI,48226,(313) 223-2999
340,13480519.842655,305685.004631,Subway,660 Woodward Ave,Detroit,MI,48226,(313) 963-7770
342,13475239.65508,315197.758218,5057atMaccabees,5057 Woodward,Detroit,MI,48202,(313) 831-9311
344,13476350.232734,310340.101175,COOP Farm to Table,474 Peterboro St,Detroit,MI,48201,
345,13466401.757847,301241.543864,Chicago’s Pizza,4650 W Vernor Hwy,Detroit,MI,48209,(313) 843-3777
346,13480178.324881,305232.810153,Papa Romano’s Pizza,615 Griswold St,Detroit,MI,48226,(313) 964-7777
347,13469769.841878,302643.742095,La Michoacana Tortilla Bakery,3428 Bagley St,Detroit,MI,48216,(313) 554-4450
348,13475170.212317,314866.830182,Epicurus Restaurant of Wayne state,111 W Warren Ave,Detroit,MI,48201,(313) 832-0133
350,13480738.49511,305996.522005,Domino’s Pizza,65 Cadillac Sq,Detroit,MI,48226,(313) 962-5600
351,13481470.868802,312920.537178,Amore de Roma,3401 Riopelle St,Detroit,MI,48207,(313) 831-5940
352,13474059.334419,305588.861438,Subway,1715 Michigan Ave,Detroit,MI,48216,(313) 965-2614
353,13482090.327715,304715.708911,River Cafe,300 Renaissance Ctr,Detroit,MI,48243,
354,13475624.7562336,314148.800853014,Bolero Latin Cuisine,51 West Forest Ave,Detroit,MI,48202,(313) 800-5059
355,13472779.022982,315796.06605,Al Basha Subs - Wayne State Univ,5122 Anthony Wayne Dr,Detroit,MI,48202,(313) 833-0000
356,13474065.99524,316306.597033,Old Campus Restaurant,5470 Cass Ave,Detroit,MI,48202,(313) 832-4817
358,13474880.828068,314483.004583,Byblos Cafe & Grill II,4830 Cass Ave,Detroit,MI,48201,(313) 292-5678
359,13474550.515937,308622.411511,Grand River Deli & Burgers,2901 Grand River Ave,Detroit,MI,48201,
360,13478628.30932,304966.074657,Bliss Sunday Brunch,525 W Lafayette Blvd,Detroit,MI,48226,(313) 499-0100
361,13478496.222108,305666.428595,Subway,477 Michigan Ave,Detroit,MI,48226,(313) 475-3139
362,13480197.536734,313051.586736,McDonald’s,1000 Mack Ave,Detroit,MI,48207,(313) 832-4100
363,13476358.530865,313260.43489,Passport Pizza,4200 Woodward Ave,Detroit,MI,48201,(313) 494-5200
364,13468618.747967,302380.449249,Amicci’s Pizza,3849 W Vernor Hwy,Detroit,MI,48216,(313) 842-7373
365,13480737.63167,305301.428819,Crossroads Cafe,500 Woodward Ave,Detroit,MI,48226,(313) 222-6192
366,13474638.633217,314871.375015,La Pita Fresh,5056 Cass Ave,Detroit,MI,48202,(313) 831-4550
367,13489788.057416,309927.128789,Jet’s Pizza,3420 E Jefferson Ave,Detroit,MI,48207,
368,13475158.533645,314861.380677,Olympic Grill,119 W Warren Ave,Detroit,MI,48201,(313) 832-5809
369,13476218.650415,303221.570684,Chester Fried Chicken,1500 W Fort St,Detroit,MI,48216,
370,13481927.400825,304977.712656,McDonald’s,100 Renaissance Ctr,Detroit,MI,48243,(313) 567-2214
371,13477962.356909,313800.482775,Subway,4201 Saint Antoine St,Detroit,MI,48201,(313) 831-8142
372,13480424.554,305121.464571,The Guardian - Zingerman’s On Tap,500 Griswold St,Detroit,MI,48226,(313) 209-4497
373,13474852.861012,316286.903231,Detroit Pizza Company,15 E Kirby St,Detroit,MI,48202,(313) 872-9000
374,13477370.277557,312758.956948,Wendy’s,3990 John R St,Detroit,MI,48201,(313) 832-7676
375,13474709.323135,313029.583667,Midtown Kabob House,4445 2nd Ave,Detroit,MI,48201,(313) 262-6204
376,13469112.923158,318019.453014,Papa’s Pizza & BBQ,2697 Grand Blvd,Detroit,MI,48208,
377,13491730.949523,311519.717399,Pekin Pavilion,6905 E Jefferson Ave,Detroit,MI,48207,
378,13472866.743531,309681.194893,Motor City Grill,3641 Grand River Ave,Detroit,MI,48208,
379,13477711.135353,310762.779544,Bakersfield Tacos,3100 Woodward Ave,Detroit,MI,48201,(313) 974-7040
381,13482193.808239,305140.640818,That Sandwich Place,200 Renaissance Ctr,Detroit,MI,48243,(313) 568-1917
386,13489931.515583,310942.381377,Little Caesars Pizza,500 Mount Elliott St,Detroit,MI,48207,
388,13480995.377982,307637.402205,Subway,1401 Beaubien St,Detroit,MI,48226,(313) 442-3200
389,13481691.732629,306958.662238,The Market District,555 E Lafayette Ave,Detroit,MI,48226,(313) 223-2999
390,13466609.39159,300951.541273,Little Caesars Pizza,4635 W Vernor Hwy,Detroit,MI,48209,(313) 849-4030
391,13473795.784092,313387.795822,Jet’s Pizza,4718 Anthony Wayne Dr,Detroit,MI,48201,(313) 297-7000
392,13480312.325903,304694.9037,AK Takeaway,150 W Jefferson,Detroit,MI,48226,(248) 548-0680
393,13484270.564031,305478.83454,Detroit River Tour,1340 Atwater St,Detroit,MI,48207,
394,13466669.155077,300606.392019,China House,1650 Lansing St,Detroit,MI,48209,(313) 297-8888
395,13480490.943491,307141.009529,Truth Music Cafe,1314 Broadway St,Detroit,MI,48226,(313) 828-4500
396,13482193.808239,305140.640818,Bahn Thai Xpress,200 Rennaisance Ctr,Detroit,MI,48243,(313) 566-0177
397,13476138.403314,313245.968776,McDonald’s,4235 Woodward Ave,Detroit,MI,48201,(313) 832-2449
398,13490532.465857,310485.04441,Happy’s Pizza,6412 E Jefferson Ave,Detroit,MI,48207,
399,13472866.743531,309681.194893,United Cafe Coney Island,3641 Grand River Ave,Detroit,MI,48208,
400,13476232.294443,312659.050989,Le Petit Zinc,70 W Alexandrine St,Detroit,MI,48201,(313) 963-2805
401,13481691.732629,306958.662238,Cafe Mix,555 E Lafayette Ave,Detroit,MI,48226,(313) 223-2999
402,13480737.63167,305301.428819,Sterling Services,500 Woodward,Detroit,MI,48226,(734) 207-8363
403,13480906.929449,306001.294449,Motown Cafe & Grill,111 Cadillac Sq,Detroit,MI,48226,(313) 962-0718
404,13467558.9278215,312486.221128613,Legends Coney Island,Grandriver,Detroit,MI,48208,
405,13477370.277557,312758.956948,Chick-fil-A,3990 John R St,Detroit,MI,48201,
406,13491139.372466,311185.374186,Wendy’s,6601 E Jefferson Ave,Detroit,MI,48207,
407,13474517.562392,308833.053874,Marios Restaurant,3020 Grand River Ave,Detroit,MI,48201,(313) 833-0700
408,13489079.71496,309783.741054,Peking Express,3444 E Jefferson Ave,Detroit,MI,48207,
409,13473522.998752,301586.183215,Ella Mae’s Place,2251 W Fort St,Detroit,MI,48216,(313) 383-9593
410,13480738.49511,305996.522005,Subway,65 Cadillac Sq,Detroit,MI,48226,(313) 963-8727
411,13466213.180819,299295.351866,El Caporal Taqueria Y Restaurant,1414 Junction St,Detroit,MI,48209,(313) 551-4920
412,13488924.782946,309432.663911,Kabob N Grill,3250 E Jefferson Ave,Detroit,MI,48207,
413,13480525.384438,308862.773309,The Breadstick Bar and Bistro,2000 Brush St,Detroit,MI,48226,(313) 262-2896
414,13477370.277557,312758.956948,Chick-fil-A,3990 John R St,Detroit,MI,48201,
415,13478496.222108,305666.428595,Subway,477 Michigan Ave,Detroit,MI,48226,(313) 237-0121
418,13478961.420107,308077.860191,Delicious Dogs,2100 Woodward Ave,Detroit,MI,48226,
419,13484883.175192,315378.559493,Gratiot Grill,3121 Gratiot Ave,Detroit,MI,48207,
420,13476795.596033,315810.882954,Little Caesar’s Pizza,530 E Warren Ave,Detroit,MI,48201,(313) 832-2200
424,13477962.356909,313800.482775,YaYa’s Flame Broiled Chicken,4201 St Antoine,Detroit,MI,48201,(313) 833-4360
425,13478811.372482,308321.092805,Jon’s Diner,2211 Woodward Ave,Detroit,MI,48201,(313) 471-6967
426,13472779.10287,315795.635408,Jimmy John’s,5118 Anthony Wayne Dr,Detroit,MI,48202,(313) 832-7614
427,13476850.47282,305615.789568,Mary’s Cafe,985 Michigan Ave,Detroit,MI,48226,(313) 961-1344
428,13478496.222108,305666.428595,Rich’s Fountain View Cafe,477 Michigan Ave,Detroit,MI,48226,(313) 963-4684
429,13477922.847227,313279.798067,Subway,3901 Beaubien St,Detroit,MI,48201,(313) 831-1260
430,13479915.289841,305509.091809,Ana Deli,719 Griswold St,Detroit,MI,48226,(313) 964-6500
431,13478811.372482,308321.092805,Little Caesars Pizza,2211 Woodward Ave,Detroit,MI,48201,(888) 452-5487
432,13477962.356909,313800.482775,Hungry Howie’s Pizza,4201 St. Antoine,Detroit,MI,48201,(313) 528-0010
435,13482193.8083989,305140.640748039,Burger King,Renaissance Center Food Ct,Detroit,MI,48243,(313) 259-8900
437,13467342.073439,312599.36596,Oscar’s Coney Island,5270 Grand River Ave,Detroit,MI,48208,(313) 361-5775
438,13479018.291626,303498.667013,Mr. Pita,600 Civic Center Dr,Detroit,MI,48226,(313) 396-7933
439,13482358.9376,304876.434603,Fish City,400 Renaissance Ctr Lbby,Detroit,MI,48243,
440,13481964.796916,309574.598097116,Deli At Brewery Park,1155 Brewery Park Blvd,Detroit,MI,48207,
441,13473427.468169,314875.297449,Gold ‘n’ Greens,695 Williams Mall,Detroit,MI,48202,
442,13483566.980142,312670.779273,Burger King,2155 Gratiot Ave,Detroit,MI,48207,
443,13491780.280762,311457.561943,Church’s Fried Chicken,6931 E Jefferson Ave,Detroit,MI,48207,
444,13476861.890373,317270.294963,Freshii,679 W Kirby St,Detroit,MI,48202,
445,13480520.652686,307237.152723,Harmony & Soul,1407 Randolph St,Detroit,MI,48226,(248) 219-4879
446,13478582.896141,306982.653302,Bagley Cafe,216 Bagley St,Detroit,MI,48226,(313) 964-3777
447,13472312.975958,319746.824701,La Musique Restaurant,3071 W Grand Blvd,Detroit,MI,48202,
448,13479534.163988,307070.485367,Peggy Day’s,2 John R,Detroit,MI,48226,
449,13482419.096082,310676.26771,Randy’s Sausage,1429 Gratiot Ave,Detroit,MI,48207,
450,13482193.808239,305140.640818,Sbarro,200 Renaissance Ctr,Detroit,MI,48243,(313) 259-2666
451,13471434.042582,303455.638718,Lajalisciense,2634 Bagley St,Detroit,MI,48216,
452,13481560.184708,307190.666534,Starbucks,546 Monroe Ave,Detroit,MI,48226,
453,13473567.24114,315443.77145,Student Center,5221 Gullen Mall,Detroit,MI,48202,(313) 577-4585
454,13477186.231362,315279.365649,You Name It,4707 Saint Antoine St,Detroit,MI,48201,(313) 833-9222
455,13479623.014796,306696.338215,H & S Deli,45 Grand River Ave,Detroit,MI,48226,(313) 965-2515
456,13476322.866606,303449.242397,Mama Mia Pizzeria,1444 W Fort St,Detroit,MI,48216,
457,13477304.375102,306556.73547,Rick’s Delight’s,660 Plaza Dr,Detroit,MI,48226,(313) 964-5616
459,13480519.842655,305685.004631,Lunchtime Global,660 Woodward Ave,Detroit,MI,48226,(313) 963-4871
460,13467012.036831,301347.716438,Citgo - Mexican town Deli,4415 W Vernor,Detroit,MI,48209,(313) 842-2433
461,13477472.316047,305007.115387,Hollywood Brown Derby Restaurant At Mgm Grand Detroit Casino,1300 John C Lodge Fwy,Detroit,MI,48226,(313) 394-4423
462,13478699.216749,308534.59635,Deck,2305 Woodward Ave,Detroit,MI,48201,(313) 965-9500
463,13487808.11624,307998.922788,Stoney Creek Brewery & Restaurant,237 Joseph Campau St,Detroit,MI,48207,
464,13482442.400055,305317.026687,Pizza Hut,500 Renaissance Ctr,Detroit,MI,48243,(313) 496-7011
465,13473567.24114,315443.77145,Taco Bell,5221 Gullen Mall,Detroit,MI,48202,(313) 832-4760
467,13466832.927121,301478.056424,Vernor Coney Island,4430 Vernor Hwy,Detroit,MI,48209,(313) 554-2085
468,13475803.382181,314082.660248,Checkers,4664 Woodward Ave,Detroit,MI,48201,(313) 831-1268
469,13469782.425973,310811.766717,Club HQ,4453 14th St,Detroit,MI,48208,
470,13489057.816533,309770.548601,Subway,3424 E Jefferson Ave,Detroit,MI,48207,
471,13474531.131544,316603.293055,Domino’s Pizza,5564 Woodward Ave,Detroit,MI,48202,(313) 831-2100
472,13480529.814812,305592.767899,Maverick’s Food & Spirits,630 Woodward Ave,Detroit,MI,48226,(313) 962-1200
473,13477370.277557,312758.956948,Quiznos,3990 John R Rd,Detroit,MI,48201,(313) 831-3400
474,13486486.528188,309294.931914,Family Fair Deli,700 Chene St,Detroit,MI,48207,
476,13475013.509134,312819.508365,Shinola Cafe,441 W Canfield,Detroit,MI,48201,(313) 285-2390
477,13480737.63167,305301.428819,James A Samborn,500 Woodward Ave,Detroit,MI,48226,(313) 223-3707
478,13480081.118601,305349.726767,Epicurean Cafe,645 Griswold St,Detroit,MI,48226,(313) 965-4998
480,13475148.3562992,305699.950787395,Maxie’s Deli,1401 Michigan Ave,Detroit,MI,48218,(313) 961-7168
481,13482193.808239,305140.640818,G & T Management,200 Renaissance Ctr,Detroit,MI,48243,(313) 259-6720
482,13478733.268755,307993.030034,State Bardba Clear Channel Ent,2115 Woodward Ave,Detroit,MI,48201,(313) 962-3663
483,13481693.347605,311244.542065,United Fish Distributors,1349 Adelaide St,Detroit,MI,48207,(313) 567-6533
484,13479278.252638,307469.712538,Flame Grill,1570 Woodward Ave,Detroit,MI,48226,(313) 962-3466
485,13467862.184219,305675.225762,Snack In the Box,3526 Michigan Ave,Detroit,MI,48216,(313) 285-8171
486,13473567.24114,315443.77145,Wingstop,5221 Gullen Mall,Detroit,MI,48202,
487,13473978.911171,313259.748207,The Cook’s Crossing,4626 3rd St,Detroit,MI,48201,(313) 833-0603
488,13473567.24114,315443.77145,Panda Express,5221 Gullen Mall,Detroit,MI,48202,
489,13476935.55788,311718.19283,Deli Unique of Detroit,3663 Woodward Ave,Detroit,MI,48201,(313) 833-8810
490,13473723.900144,314811.07228,Delilah’s Cafe,5155 Gullen Mall,Detroit,MI,48202,(313) 833-0118
491,13469402.953726,317867.810607,KFC,2716 W. Grand Blvd.,Detroit,MI,48208,
493,13482524.367126,305697.553805768,Nathan’s,E Jefferson,Detroit,MI,48207,
494,13492486.707301,312034.037577,Krispy Krunchy Chicken,7255 E Jefferson,Detroit,MI,48214,
495,13482419.096082,310676.26771,Central Market Grill,1429 Gratiot Ave,Detroit,MI,48207,
496,13472775.789791,315811.428645,Bongs Noodles,5260 Anthony Wayne Dr,Detroit,MI,48202,(586) 961-2898
498,13476101.042695,314309.753293,Forest’s Veggies,66 E Forest,Detroit,MI,48201,(313) 974-6661
499,13473361.67126,315355.843016,Subway,655 West Kirby,Detroit,MI,48202,(313) 577-5783
500,13467558.927846,312486.221187,Legends Grill,5210 Grand River Ave,Detroit,MI,48208,(313) 265-3456
501,13477247.506339,313500.824664,Midtown Express Cafe,4160 John R St,Detroit,MI,48201,(313) 831-3000
503,13469769.841878,302643.742095,Cordoba Victor Hugo,3400 Bagley St,Detroit,MI,48216,(313) 841-3540
504,13473576.427058,313830.316092,Little Asia Inc,4781 Anthony Wayne Dr,Detroit,MI,48201,
505,13466892.495057,297614.647852,Star Coney Island,5648 W Fort St,Detroit,MI,48209,(313) 843-4060
506,13473989.310597,316593.453601,Harmonie Garden Cafe IV,87 W Palmer St,Detroit,MI,48202,(313) 831-4420
507,13480723.2022136,306949.334918995,The Well,1228 Randolph,Detroit,MI,48226,313-964-0776
508,13480832.7938579,306730.151302243,Acropolis Bakery,310 Monroe,Detroit,MI,48226,313-964-3345
509,13480885.9620587,306760.533131255,Delux Lounge,350 Monroe Ave,Detroit,MI,48226,313-962-4200
510,,,Coldstone Creamery,510 Monroe,Detroit,MI,48226,
511,13479367.7003314,306288.324758078,Eatori Market,1215 Griswold,Detroit,MI,48226,
513,,,Prime and Proper,1145 Griswold,Detroit,MI,48226,313-636-3100
514,13480104.5075848,306211.51979359,Detroit Water Ice Factory,1014 Woodward Ave,Detroit,MI,48226,313-888-9106
